ONEWEB-0043             
1 45149U 20008U   23304.84766559  .00000542  00000+0  15170-2 0  9991
2 45149  87.8917 226.7843 0002380  72.8733 287.2655 13.10375641183323
ONEWEB-0044             
1 45150U 20008V   23305.18231102 -.00000020  00000+0 -94899-4 0  9992
2 45150  87.8912 226.7163 0002143  72.3978 287.7383 13.10371837183650
ONEWEB-0045             
1 45151U 20008W   23304.80695458  .00000540  00000+0  14881-2 0  9995
2 45151  87.8997 211.6519 0001689  73.1384 286.9929 13.11417371184660
ONEWEB-0047             
1 45152U 20008X   23305.17420913  .00000428  00000+0  11884-2 0  9994
2 45152  87.8913 226.7188 0001913  73.4004 286.7333 13.10376614183399
ONEWEB-0048             
1 45153U 20008Y   23304.86389714  .00000566  00000+0  15861-2 0  9995
2 45153  87.8915 226.7910 0001906  73.4003 286.7333 13.10373167182171
ONEWEB-0049             
1 45154U 20008Z   23304.86553979  .00000447  00000+0  12428-2 0  9996
2 45154  87.8920 226.7616 0001955  77.4647 282.6699 13.10373321182399
ONEWEB-0051             
1 45155U 20008AA  23304.80531369  .00000542  00000+0  14924-2 0  9999
2 45155  87.9003 211.6868 0001567  71.1712 288.9586 13.11421687185340
ONEWEB-0052             
1 45156U 20008AB  23305.16770028  .00000646  00000+0  18142-2 0  9998
2 45156  87.8920 226.6859 0002492  85.4475 274.6937 13.10371845183109
